NORAD_CAT_ID,OBJECT_NAME,OBJECT_TYPE,EPOCH,MEAN_MOTION,ECCENTRICITY,INCLINATION,RA_OF_ASC_NODE,ARG_OF_PERICENTER,MEAN_ANOMALY,BSTAR,MEAN_MOTION_DOT,MEAN_MOTION_DDOT,TLE_LINE0,TLE_LINE1,TLE_LINE2,SEMIMAJOR_AXIS,PERIOD,APOGEE,PERIGEE,DECAYED
50803.0,STARLINK-3321,PAYLOAD,2024-04-08 05:34:36,15.0884087,0.0001763,53.2183,73.5978,97.781,262.3383,5.2101e-05,5.41e-06,0.0,0 STARLINK-3321,1 50803U 22001A   24099.23237051  .00000541  00000-0  52101-4 0  9991,2 50803  53.2183  73.5978 0001763  97.7810 262.3383 15.08840870125936,6917.878,95.437,540.962,538.523,0.0
50803.0,STARLINK-3321,PAYLOAD,2024-04-08 21:28:28,15.08836745,0.0001681,53.2179,70.6235,94.3965,265.7219,8.7379e-05,1.103e-05,0.0,0 STARLINK-3321,1 50803U 22001A   24099.89477265  .00001103  00000-0  87379-4 0  9996,2 50803  53.2179  70.6235 0001681  94.3965 265.7219 15.08836745124769,6917.89,95.438,540.918,538.592,0.0
50803.0,STARLINK-3321,PAYLOAD,2024-04-09 03:50:01,15.08835049,0.0001677,53.2183,69.4336,92.6738,267.4446,3.9055e-05,3.33e-06,0.0,0 STARLINK-3321,1 50803U 22001A   24100.15973635  .00000333  00000-0  39055-4 0  9992,2 50803  53.2183  69.4336 0001677  92.6738 267.4446 15.08835049126079,6917.896,95.438,540.921,538.6,0.0
50803.0,STARLINK-3321,PAYLOAD,2024-04-09 07:00:47,15.08837635,0.0001684,53.2183,68.839,92.6607,267.4578,5.8256e-05,6.39e-06,0.0,0 STARLINK-3321,1 50803U 22001A   24100.29221444  .00000639  00000-0  58256-4 0  9994,2 50803  53.2183  68.8390 0001684  92.6607 267.4578 15.08837635124825,6917.888,95.438,540.918,538.588,0.0
50803.0,STARLINK-3321,PAYLOAD,2024-04-09 14:57:42,15.08839602,0.0001668,53.2185,67.3513,88.3078,271.8105,7.3283e-05,8.78e-06,0.0,0 STARLINK-3321,1 50803U 22001A   24100.62341328  .00000878  00000-0  73283-4 0  9997,2 50803  53.2185  67.3513 0001668  88.3078 271.8105 15.08839602124870,6917.882,95.438,540.901,538.593,0.0
50803.0,STARLINK-3321,PAYLOAD,2024-04-10 05:16:11,15.08837243,0.0001651,53.2182,64.6753,92.2491,267.869,0.0001356,1.871e-05,0.0,0 STARLINK-3321,1 50803U 22001A   24101.21957260  .00001871  00000-0  13560-3 0  9996,2 50803  53.2182  64.6753 0001651  92.2491 267.8690 15.08837243126233,6917.889,95.438,540.896,538.612,0.0
50803.0,STARLINK-3321,PAYLOAD,2024-04-10 14:48:30,15.08838073,0.000163,53.2195,62.8908,84.9961,275.1218,2.1028e-05,4.7e-07,0.0,0 STARLINK-3321,1 50803U 22001A   24101.61701591  .00000047  00000-0  21028-4 0  9997,2 50803  53.2195  62.8908 0001630  84.9961 275.1218 15.08838073125022,6917.886,95.438,540.879,538.624,0.0
50803.0,STARLINK-3321,PAYLOAD,2024-04-11 03:31:35,15.08826718,0.0001189,53.2174,60.5102,95.6359,264.4769,0.00014381,2.001e-05,0.0,0 STARLINK-3321,1 50803U 22001A   24102.14693998  .00002001  00000-0  14381-3 0  9992,2 50803  53.2174  60.5102 0001189  95.6359 264.4769 15.08826718126373,6917.921,95.438,540.609,538.963,0.0
50803.0,STARLINK-3321,PAYLOAD,2024-04-11 06:42:21,15.08840172,0.0001585,53.2187,59.9147,91.6093,268.5081,3.535e-05,2.75e-06,0.0,0 STARLINK-3321,1 50803U 22001A   24102.27941508  .00000275  00000-0  35350-4 0  9990,2 50803  53.2187  59.9147 0001585  91.6093 268.5081 15.08840172126393,6917.88,95.438,540.841,538.648,0.0
50803.0,STARLINK-3321,PAYLOAD,2024-04-11 14:39:17,15.08841706,0.0001598,53.2189,58.4285,90.9722,269.1453,4.7339e-05,4.65e-06,0.0,0 STARLINK-3321,1 50803U 22001A   24102.61061399  .00000465  00000-0  47339-4 0  9990,2 50803  53.2189  58.4285 0001598  90.9722 269.1453 15.08841706125176,6917.875,95.437,540.846,538.635,0.0
50803.0,STARLINK-3321,PAYLOAD,2024-04-12 03:22:21,15.08847802,0.0001558,53.2191,56.0484,94.4802,265.6368,7.4386e-05,8.96e-06,0.0,0 STARLINK-3321,1 50803U 22001A   24103.14052799  .00000896  00000-0  74386-4 0  9993,2 50803  53.2191  56.0484 0001558  94.4802 265.6368 15.08847802126527,6917.857,95.437,540.799,538.644,0.0
50803.0,STARLINK-3321,PAYLOAD,2024-04-12 06:33:08,15.08823065,0.000176,53.2195,55.4536,101.1006,259.0184,0.00041977,6.396e-05,0.0,0 STARLINK-3321,1 50803U 22001A   24103.27301353  .00006396  00000-0  41977-3 0  9990,2 50803  53.2195  55.4536 0001760 101.1006 259.0184 15.08823065126549,6917.932,95.439,541.015,538.58,0.0
50803.0,STARLINK-3321,PAYLOAD,2024-04-13 06:23:55,15.08839325,0.0001593,53.2196,50.9927,99.7884,260.3288,3.3768e-05,2.49e-06,0.0,0 STARLINK-3321,1 50803U 22001A   24104.26661560  .00000249  00000-0  33768-4 0  9990,2 50803  53.2196  50.9927 0001593  99.7884 260.3288 15.08839325125426,6917.882,95.438,540.849,538.645,0.0
50803.0,STARLINK-3321,PAYLOAD,2024-04-14 03:03:56,15.08843512,0.0001541,53.2194,47.126,99.0347,261.0819,5.4622e-06,-2.01e-06,0.0,0 STARLINK-3321,1 50803U 22001A   24105.12773414 -.00000201  00000-0  54622-5 0  9990,2 50803  53.2194  47.1260 0001541  99.0347 261.0819 15.08843512126828,6917.87,95.437,540.801,538.669,0.0
50803.0,STARLINK-3321,PAYLOAD,2024-04-15 01:19:19,15.08831635,0.0001528,53.2194,42.9641,106.0622,254.0538,-2.3469e-05,-6.61e-06,0.0,0 STARLINK-3321,1 50803U 22001A   24106.05509129 -.00000661  00000-0 -23469-4 0  9998,2 50803  53.2194  42.9641 0001528 106.0622 254.0538 15.08831635125691,6917.906,95.438,540.828,538.714,0.0
50803.0,STARLINK-3321,PAYLOAD,2024-04-15 18:48:35,15.0882352,7e-05,53.2191,39.7007,89.5494,270.5579,-2.4335e-05,-6.75e-06,0.0,0 STARLINK-3321,1 50803U 22001A   24106.78373947 -.00000675  00000-0 -24335-4 0  9993,2 50803  53.2191  39.7007 0000700  89.5494 270.5579 15.08823520127077,6917.931,95.439,540.28,539.312,0.0
50803.0,STARLINK-3321,PAYLOAD,2024-04-16 04:20:52,15.08851695,0.0001296,53.2189,37.907,101.9762,258.1375,2.7221e-05,1.45e-06,0.0,0 STARLINK-3321,1 50803U 22001A   24107.18116764  .00000145  00000-0  27221-4 0  9997,2 50803  53.2189  37.9070 0001296 101.9762 258.1375 15.08851695127139,6917.845,95.437,540.606,538.813,0.0
50803.0,STARLINK-3321,PAYLOAD,2024-04-16 12:17:48,15.08854541,0.0001575,53.2201,36.4221,75.064,285.0527,-2.8965e-06,-3.34e-06,0.0,0 STARLINK-3321,1 50803U 22001A   24107.51236624 -.00000334  00000-0 -28965-5 0  9991,2 50803  53.2201  36.4221 0001575  75.0640 285.0527 15.08854541125917,6917.836,95.437,540.791,538.611,0.0
50803.0,STARLINK-3321,PAYLOAD,2024-04-17 04:11:38,15.08862786,0.0001442,53.2176,33.4537,103.6176,256.4977,0.00067804,0.00010526,0.0,0 STARLINK-3321,1 50803U 22001A   24108.17475590  .00010526  00000-0  67804-3 0  9996,2 50803  53.2176  33.4537 0001442 103.6176 256.4977 15.08862786127283,6917.811,95.436,540.673,538.678,0.0
50803.0,STARLINK-3321,PAYLOAD,2024-04-18 00:51:42,15.08819434,0.0001858,53.219,29.5829,87.8034,272.3171,-0.00023256,-3.985e-05,0.0,0 STARLINK-3321,1 50803U 22001A   24109.03590546 -.00003985  00000-0 -23256-3 0  9997,2 50803  53.2190  29.5829 0001858  87.8034 272.3171 15.08819434127416,6917.943,95.439,541.094,538.523,0.0
50803.0,STARLINK-3321,PAYLOAD,2024-04-18 08:48:37,15.08833103,0.0001639,53.2176,28.0983,124.8402,235.2744,6.2765e-05,7.11e-06,0.0,0 STARLINK-3321,1 50803U 22001A   24109.36710076  .00000711  00000-0  62765-4 0  9996,2 50803  53.2176  28.0983 0001639 124.8402 235.2744 15.08833103127461,6917.901,95.438,540.9,538.633,0.0
50803.0,STARLINK-3321,PAYLOAD,2024-04-19 03:53:14,15.08856035,0.0001615,53.2176,24.5279,112.4386,247.6777,0.00086718,0.00013546,0.0,0 STARLINK-3321,1 50803U 22001A   24110.16197544  .00013546  00000-0  86718-3 0  9998,2 50803  53.2176  24.5279 0001615 112.4386 247.6777 15.08856035127583,6917.831,95.437,540.814,538.579,0.0
50803.0,STARLINK-3321,PAYLOAD,2024-04-19 22:57:52,15.08858014,0.0001716,53.2183,20.9631,92.2099,267.9089,0.00049175,7.551e-05,0.0,0 STARLINK-3321,1 50803U 22001A   24110.95685883  .00007551  00000-0  49175-3 0  9998,2 50803  53.2183  20.9631 0001716  92.2099 267.9089 15.08858014126434,6917.825,95.436,540.877,538.503,0.0
50803.0,STARLINK-3321,PAYLOAD,2024-04-20 00:33:15,15.0888217,0.0001648,53.218,20.6677,115.0461,245.0702,0.0011595,0.00018235,0.0,0 STARLINK-3321,1 50803U 22001A   24111.02309308  .00018235  00000-0  11595-2 0  9997,2 50803  53.2180  20.6677 0001648 115.0461 245.0702 15.08882170127710,6917.751,95.435,540.757,538.476,0.0
50803.0,STARLINK-3321,PAYLOAD,2024-04-21 03:34:49,15.08812775,0.0001503,53.2191,15.6097,112.053,248.0622,-0.00037164,-6.193e-05,0.0,0 STARLINK-3321,1 50803U 22001A   24112.14918584 -.00006193  00000-0 -37164-3 0  9996,2 50803  53.2191  15.6097 0001503 112.0530 248.0622 15.08812775127882,6917.964,95.439,540.868,538.789,0.0
50803.0,STARLINK-3321,PAYLOAD,2024-04-21 05:10:12,15.08821276,0.0001337,53.2186,15.3141,101.7095,258.4047,-0.00030798,-5.183e-05,0.0,0 STARLINK-3321,1 50803U 22001A   24112.21542584 -.00005183  00000-0 -30798-3 0  9991,2 50803  53.2186  15.3141 0001337 101.7095 258.4047 15.08821276126622,6917.938,95.439,540.728,538.878,0.0
50803.0,STARLINK-3321,PAYLOAD,2024-04-21 17:53:18,15.08827611,0.0001309,53.2189,12.9347,111.7872,248.3259,0.00039597,6.017e-05,0.0,0 STARLINK-3321,1 50803U 22001A   24112.74535313  .00006017  00000-0  39597-3 0  9992,2 50803  53.2189  12.9347 0001309 111.7872 248.3259 15.08827611127970,6917.918,95.438,540.689,538.878,0.0
50803.0,STARLINK-3321,PAYLOAD,2024-04-21 22:39:27,15.08847095,0.0001748,53.2189,12.0429,109.7618,250.3563,0.0011263,0.00017686,0.0,0 STARLINK-3321,1 50803U 22001A   24112.94406799  .00017686  00000-0  11263-2 0  9992,2 50803  53.2189  12.0429 0001748 109.7618 250.3563 15.08847095126736,6917.859,95.437,540.933,538.514,0.0
50803.0,STARLINK-3321,PAYLOAD,2024-04-22 00:14:50,15.08850395,0.0001895,53.2197,11.7469,113.3808,246.7383,0.0012332,0.00019398,0.0,0 STARLINK-3321,1 50803U 22001A   24113.01030769  .00019398  00000-0  12332-2 0  9991,2 50803  53.2197  11.7469 0001895 113.3808 246.7383 15.08850395128019,6917.849,95.437,541.025,538.403,0.0
50803.0,STARLINK-3321,PAYLOAD,2024-04-22 20:54:51,15.08851557,0.0002222,53.2191,7.8796,122.8574,237.2632,0.00026422,3.921e-05,0.0,0 STARLINK-3321,1 50803U 22001A   24113.87142670  .00003921  00000-0  26422-3 0  9991,2 50803  53.2191   7.8796 0002222 122.8574 237.2632 15.08851557128149,6917.845,95.437,541.247,538.173,0.0
